[{"OBJECT_NAME":"GEESAT-1 08","OBJECT_ID":"2022-058H","EPOCH":"2026-03-09T20:59:16.339488","MEAN_MOTION":14.81028029,"ECCENTRICITY":0.00200606,"INCLINATION":49.9934,"RA_OF_ASC_NODE":300.0848,"ARG_OF_PERICENTER":270.1899,"MEAN_ANOMALY":89.674,"EPHEMERIS_TYPE":0,"CLASSIFICATION_TYPE":"U","NORAD_CAT_ID":52792,"ELEMENT_SET_NO":999,"REV_AT_EPOCH":20521,"BSTAR":0.00033113954,"MEAN_MOTION_DOT":2.378e-5,"MEAN_MOTION_DDOT":0},{"OBJECT_NAME":"FENGYUN 1C DEB","OBJECT_ID":"1999-025CZV","EPOCH":"2026-03-07T07:47:36.128544","MEAN_MOTION":14.79534889,"ECCENTRICITY":0.00380344,"INCLINATION":99.5723,"RA_OF_ASC_NODE":250.9292,"ARG_OF_PERICENTER":252.8564,"MEAN_ANOMALY":230.4728,"EPHEMERIS_TYPE":0,"CLASSIFICATION_TYPE":"U","NORAD_CAT_ID":32409,"ELEMENT_SET_NO":999,"REV_AT_EPOCH":60088,"BSTAR":0.0037809327,"MEAN_MOTION_DOT":0.00028679,"MEAN_MOTION_DDOT":0}]
